CCSDS_OMM_VERS = 2.0
CREATION_DATE  = 
ORIGINATOR     = 

OBJECT_NAME    = ATLAS CENTAUR R/B
OBJECT_ID      = 1972-065B
CENTER_NAME    = EARTH
REF_FRAME      = TEME
TIME_SYSTEM    = UTC
MEAN_ELEMENT_THEORY = SGP/SGP4

EPOCH          = 2026-03-05T20:12:42.057216
MEAN_MOTION    = 14.77675433
ECCENTRICITY   = .0033983
INCLINATION    = 35.0026
RA_OF_ASC_NODE = 328.3015
ARG_OF_PERICENTER = 336.5094
MEAN_ANOMALY   = 23.4054

EPHEMERIS_TYPE = 0
CLASSIFICATION_TYPE = U
NORAD_CAT_ID   = 6155
ELEMENT_SET_NO = 999
REV_AT_EPOCH   = 84069
BSTAR          = .25765E-3
MEAN_MOTION_DOT = .187E-4
MEAN_MOTION_DDOT = 0

CCSDS_OMM_VERS = 2.0
CREATION_DATE  = 
ORIGINATOR     = 

OBJECT_NAME    = SL-8 R/B
OBJECT_ID      = 1975-112B
CENTER_NAME    = EARTH
REF_FRAME      = TEME
TIME_SYSTEM    = UTC
MEAN_ELEMENT_THEORY = SGP/SGP4

EPOCH          = 2026-03-05T07:54:30.667968
MEAN_MOTION    = 14.38200686
ECCENTRICITY   = .0014529
INCLINATION    = 74.0619
RA_OF_ASC_NODE = 26.9320
ARG_OF_PERICENTER = 122.0340
MEAN_ANOMALY   = 238.2228

EPHEMERIS_TYPE = 0
CLASSIFICATION_TYPE = U
NORAD_CAT_ID   = 8459
ELEMENT_SET_NO = 999
REV_AT_EPOCH   = 63124
BSTAR          = .11859E-3
MEAN_MOTION_DOT = .334E-5
MEAN_MOTION_DDOT = 0

CCSDS_OMM_VERS = 2.0
CREATION_DATE  = 
ORIGINATOR     = 

OBJECT_NAME    = SL-3 R/B
OBJECT_ID      = 1977-057B
CENTER_NAME    = EARTH
REF_FRAME      = TEME
TIME_SYSTEM    = UTC
MEAN_ELEMENT_THEORY = SGP/SGP4

EPOCH          = 2026-03-05T18:27:47.019744
MEAN_MOTION    = 15.45361859
ECCENTRICITY   = .0006267
INCLINATION    = 97.5765
RA_OF_ASC_NODE = 236.5180
ARG_OF_PERICENTER = 301.5835
MEAN_ANOMALY   = 58.4801

EPHEMERIS_TYPE = 0
CLASSIFICATION_TYPE = U
NORAD_CAT_ID   = 10114
ELEMENT_SET_NO = 999
REV_AT_EPOCH   = 66772
BSTAR          = .34274E-3
MEAN_MOTION_DOT = .16289E-3
MEAN_MOTION_DDOT = 0

CCSDS_OMM_VERS = 2.0
CREATION_DATE  = 
ORIGINATOR     = 

OBJECT_NAME    = SEASAT 1
OBJECT_ID      = 1978-064A
CENTER_NAME    = EARTH
REF_FRAME      = TEME
TIME_SYSTEM    = UTC
MEAN_ELEMENT_THEORY = SGP/SGP4

EPOCH          = 2026-03-05T16:35:57.699456
MEAN_MOTION    = 14.46156505
ECCENTRICITY   = .0002223
INCLINATION    = 108.0118
RA_OF_ASC_NODE = 117.1103
ARG_OF_PERICENTER = 287.0341
MEAN_ANOMALY   = 73.0561

EPHEMERIS_TYPE = 0
CLASSIFICATION_TYPE = U
NORAD_CAT_ID   = 10967
ELEMENT_SET_NO = 999
REV_AT_EPOCH   = 50593
BSTAR          = .12535E-3
MEAN_MOTION_DOT = .311E-5
MEAN_MOTION_DDOT = 0

CCSDS_OMM_VERS = 2.0
CREATION_DATE  = 
ORIGINATOR     = 

OBJECT_NAME    = SL-14 R/B
OBJECT_ID      = 1979-011B
CENTER_NAME    = EARTH
REF_FRAME      = TEME
TIME_SYSTEM    = UTC
MEAN_ELEMENT_THEORY = SGP/SGP4

EPOCH          = 2026-03-05T13:21:02.920320
MEAN_MOTION    = 14.91902860
ECCENTRICITY   = .0017573
INCLINATION    = 82.5213
RA_OF_ASC_NODE = 100.4941
ARG_OF_PERICENTER = 73.2348
MEAN_ANOMALY   = 287.0798

EPHEMERIS_TYPE = 0
CLASSIFICATION_TYPE = U
NORAD_CAT_ID   = 11267
ELEMENT_SET_NO = 999
REV_AT_EPOCH   = 52816
BSTAR          = .75615E-4
MEAN_MOTION_DOT = .792E-5
MEAN_MOTION_DDOT = 0

CCSDS_OMM_VERS = 2.0
CREATION_DATE  = 
ORIGINATOR     = 

OBJECT_NAME    = SL-8 R/B
OBJECT_ID      = 1979-089B
CENTER_NAME    = EARTH
REF_FRAME      = TEME
TIME_SYSTEM    = UTC
MEAN_ELEMENT_THEORY = SGP/SGP4

EPOCH          = 2026-03-05T12:20:59.730144
MEAN_MOTION    = 14.42347568
ECCENTRICITY   = .001714
INCLINATION    = 74.0672
RA_OF_ASC_NODE = 98.7734
ARG_OF_PERICENTER = 271.8665
MEAN_ANOMALY   = 88.0529

EPHEMERIS_TYPE = 0
CLASSIFICATION_TYPE = U
NORAD_CAT_ID   = 11574
ELEMENT_SET_NO = 999
REV_AT_EPOCH   = 43550
BSTAR          = .12143E-3
MEAN_MOTION_DOT = .375E-5
MEAN_MOTION_DDOT = 0

CCSDS_OMM_VERS = 2.0
CREATION_DATE  = 
ORIGINATOR     = 

OBJECT_NAME    = SL-14 R/B
OBJECT_ID      = 1980-005B
CENTER_NAME    = EARTH
REF_FRAME      = TEME
TIME_SYSTEM    = UTC
MEAN_ELEMENT_THEORY = SGP/SGP4

EPOCH          = 2026-03-05T16:49:10.465248
MEAN_MOTION    = 14.90925161
ECCENTRICITY   = .0015837
INCLINATION    = 82.5152
RA_OF_ASC_NODE = 311.0198
ARG_OF_PERICENTER = 171.2288
MEAN_ANOMALY   = 188.9211

EPHEMERIS_TYPE = 0
CLASSIFICATION_TYPE = U
NORAD_CAT_ID   = 11672
ELEMENT_SET_NO = 999
REV_AT_EPOCH   = 47589
BSTAR          = .77161E-4
MEAN_MOTION_DOT = .788E-5
MEAN_MOTION_DDOT = 0

CCSDS_OMM_VERS = 2.0
CREATION_DATE  = 
ORIGINATOR     = 

OBJECT_NAME    = SL-8 R/B
OBJECT_ID      = 1981-003B
CENTER_NAME    = EARTH
REF_FRAME      = TEME
TIME_SYSTEM    = UTC
MEAN_ELEMENT_THEORY = SGP/SGP4

EPOCH          = 2026-03-05T16:41:52.408608
MEAN_MOTION    = 15.10785815
ECCENTRICITY   = .0262609
INCLINATION    = 82.9384
RA_OF_ASC_NODE = 293.7177
ARG_OF_PERICENTER = 192.5103
MEAN_ANOMALY   = 166.9532

EPHEMERIS_TYPE = 0
CLASSIFICATION_TYPE = U
NORAD_CAT_ID   = 12139
ELEMENT_SET_NO = 999
REV_AT_EPOCH   = 31407
BSTAR          = .55036E-3
MEAN_MOTION_DOT = .21368E-3
MEAN_MOTION_DDOT = 0

CCSDS_OMM_VERS = 2.0
CREATION_DATE  = 
ORIGINATOR     = 

OBJECT_NAME    = SL-3 R/B
OBJECT_ID      = 1981-046B
CENTER_NAME    = EARTH
REF_FRAME      = TEME
TIME_SYSTEM    = UTC
MEAN_ELEMENT_THEORY = SGP/SGP4

EPOCH          = 2026-03-05T18:15:52.685280
MEAN_MOTION    = 15.41873551
ECCENTRICITY   = .0019904
INCLINATION    = 81.2301
RA_OF_ASC_NODE = 294.4623
ARG_OF_PERICENTER = 35.6397
MEAN_ANOMALY   = 324.6170

EPHEMERIS_TYPE = 0
CLASSIFICATION_TYPE = U
NORAD_CAT_ID   = 12465
ELEMENT_SET_NO = 999
REV_AT_EPOCH   = 43782
BSTAR          = .34103E-3
MEAN_MOTION_DOT = .14614E-3
MEAN_MOTION_DDOT = 0

CCSDS_OMM_VERS = 2.0
CREATION_DATE  = 
ORIGINATOR     = 

OBJECT_NAME    = SL-3 R/B
OBJECT_ID      = 1981-103B
CENTER_NAME    = EARTH
REF_FRAME      = TEME
TIME_SYSTEM    = UTC
MEAN_ELEMENT_THEORY = SGP/SGP4

EPOCH          = 2026-03-05T19:49:26.583168
MEAN_MOTION    = 15.21320667
ECCENTRICITY   = .0012483
INCLINATION    = 81.1583
RA_OF_ASC_NODE = 217.9640
ARG_OF_PERICENTER = 300.4748
MEAN_ANOMALY   = 59.5250

EPHEMERIS_TYPE = 0
CLASSIFICATION_TYPE = U
NORAD_CAT_ID   = 12904
ELEMENT_SET_NO = 999
REV_AT_EPOCH   = 97264
BSTAR          = .36312E-3
MEAN_MOTION_DOT = .8168E-4
MEAN_MOTION_DDOT = 0

CCSDS_OMM_VERS = 2.0
CREATION_DATE  = 
ORIGINATOR     = 

OBJECT_NAME    = SL-3 R/B
OBJECT_ID      = 1982-013B
CENTER_NAME    = EARTH
REF_FRAME      = TEME
TIME_SYSTEM    = UTC
MEAN_ELEMENT_THEORY = SGP/SGP4

EPOCH          = 2026-03-05T18:28:43.531392
MEAN_MOTION    = 15.21967374
ECCENTRICITY   = .0022412
INCLINATION    = 81.1765
RA_OF_ASC_NODE = 165.3635
ARG_OF_PERICENTER = 190.4826
MEAN_ANOMALY   = 169.5942

EPHEMERIS_TYPE = 0
CLASSIFICATION_TYPE = U
NORAD_CAT_ID   = 13068
ELEMENT_SET_NO = 999
REV_AT_EPOCH   = 40375
BSTAR          = .27291E-3
MEAN_MOTION_DOT = .6292E-4
MEAN_MOTION_DDOT = 0

CCSDS_OMM_VERS = 2.0
CREATION_DATE  = 
ORIGINATOR     = 

OBJECT_NAME    = SL-3 R/B
OBJECT_ID      = 1982-039B
CENTER_NAME    = EARTH
REF_FRAME      = TEME
TIME_SYSTEM    = UTC
MEAN_ELEMENT_THEORY = SGP/SGP4

EPOCH          = 2026-03-05T17:56:09.623040
MEAN_MOTION    = 15.10053601
ECCENTRICITY   = .0029824
INCLINATION    = 81.1583
RA_OF_ASC_NODE = 220.5069
ARG_OF_PERICENTER = 337.2966
MEAN_ANOMALY   = 22.6937

EPHEMERIS_TYPE = 0
CLASSIFICATION_TYPE = U
NORAD_CAT_ID   = 13154
ELEMENT_SET_NO = 999
REV_AT_EPOCH   = 38104
BSTAR          = .24015E-3
MEAN_MOTION_DOT = .397E-4
MEAN_MOTION_DDOT = 0

